{"type": "FeatureCollection", "features": [{"type": "Feature", "properties": {"name": "New River", "order": 4}, "geometry": {"type": "LineString", "coordinates": [[-81.68, 36.13], [-81.62, 36.17], [-81.56, 36.21], [-81.51, 36.26], [-81.47, 36.31], [-81.43, 36.35], [-81.41, 36.39], [-81.38, 36.42], [-81.34, 36.45], [-81.29, 36.48], [-81.24, 36.51], [-81.19, 36.54], [-81.14, 36.57], [-81.1, 36.59], [-81.05, 36.62], [-81.0, 36.64], [-80.97, 36.65], [-80.93, 36.66], [-80.87, 36.68], [-80.81, 36.71], [-80.75, 36.74], [-80.69, 36.77], [-80.62, 36.8], [-80.56, 36.83], [-80.5, 36.86]]}}, {"type": "Feature", "properties": {"name": "South Fork New River", "order": 3}, "geometry": {"type": "LineString", "coordinates": [[-81.7, 36.05], [-81.66, 36.09], [-81.62, 36.13], [-81.58, 36.17], [-81.54, 36.21], [-81.49, 36.25], [-81.45, 36.29], [-81.42, 36.33], [-81.41, 36.37], [-81.41, 36.39]]}}, {"type": "Feature", "properties": {"name": "Watauga River", "order": 3}, "geometry": {"type": "LineString", "coordinates": [[-81.64, 36.16], [-81.7, 36.18], [-81.75, 36.2], [-81.8, 36.22], [-81.83, 36.23], [-81.88, 36.24], [-81.94, 36.25], [-82.0, 36.26], [-82.06, 36.28], [-82.12, 36.3], [-82.18, 36.32], [-82.23, 36.34], [-82.28, 36.35], [-82.34, 36.36], [-82.4, 36.37], [-82.45, 36.38], [-82.5, 36.38]]}}, {"type": "Feature", "properties": {"name": "North Fork New River", "order": 3}, "geometry": {"type": "LineString", "coordinates": [[-81.38, 36.2], [-81.35, 36.24], [-81.33, 36.28], [-81.34, 36.32], [-81.36, 36.36], [-81.38, 36.4], [-81.38, 36.42]]}}]}