{"type":"FeatureCollection","features":[
{"type":"Feature","properties":{"name":"VA"},"geometry":{"type":"Polygon","coordinates":[[[-82.500,36.595],[-82.300,36.595],[-82.100,36.595],[-81.900,36.595],[-81.700,36.593],[-81.500,36.596],[-81.300,36.601],[-81.100,36.610],[-80.900,36.615],[-80.700,36.630],[-80.500,36.640],[-80.500,37.000],[-82.500,37.000],[-82.500,36.595]]]}},
{"type":"Feature","properties":{"name":"NC"},"geometry":{"type":"Polygon","coordinates":[[[-82.500,36.595],[-82.300,36.595],[-82.100,36.595],[-81.900,36.595],[-81.700,36.593],[-81.500,36.596],[-81.300,36.601],[-81.100,36.610],[-80.900,36.615],[-80.700,36.630],[-80.500,36.640],[-80.500,35.800],[-82.500,35.800],[-82.500,36.100],[-82.490,36.140],[-82.470,36.180],[-82.450,36.220],[-82.420,36.260],[-82.400,36.300],[-82.410,36.350],[-82.430,36.400],[-82.460,36.440],[-82.490,36.480],[-82.500,36.520],[-82.500,36.595]]]}},
{"type":"Feature","properties":{"name":"TN"},"geometry":{"type":"Polygon","coordinates":[[[-82.500,36.100],[-82.490,36.140],[-82.470,36.180],[-82.450,36.220],[-82.420,36.260],[-82.400,36.300],[-82.410,36.350],[-82.430,36.400],[-82.460,36.440],[-82.490,36.480],[-82.500,36.520],[-82.500,36.100]]]}}
]}