{"type": "FeatureCollection", "features": [{"type": "Feature", "properties": {"name": "S. Fork New River Basin", "huc8": "05050001", "site": "03161000"}, "geometry": {"type": "Polygon", "coordinates": [[[-81.7, 36.05], [-81.62, 36.01], [-81.52, 35.99], [-81.4, 36.0], [-81.3, 36.03], [-81.2, 36.08], [-81.15, 36.15], [-81.13, 36.23], [-81.15, 36.31], [-81.2, 36.37], [-81.27, 36.42], [-81.35, 36.45], [-81.43, 36.45], [-81.51, 36.42], [-81.57, 36.37], [-81.63, 36.31], [-81.68, 36.24], [-81.72, 36.17], [-81.73, 36.1], [-81.7, 36.05]]]}}, {"type": "Feature", "properties": {"name": "New River Mainstem", "huc8": "05050002", "site": "03164000"}, "geometry": {"type": "Polygon", "coordinates": [[[-81.43, 36.45], [-81.35, 36.45], [-81.27, 36.46], [-81.18, 36.49], [-81.08, 36.52], [-80.98, 36.56], [-80.9, 36.6], [-80.83, 36.65], [-80.8, 36.72], [-80.82, 36.79], [-80.88, 36.84], [-80.96, 36.86], [-81.06, 36.85], [-81.15, 36.81], [-81.23, 36.76], [-81.3, 36.7], [-81.37, 36.63], [-81.42, 36.56], [-81.44, 36.5], [-81.43, 36.45]]]}}, {"type": "Feature", "properties": {"name": "Watauga River Basin", "huc8": "06010103", "site": "03479000"}, "geometry": {"type": "Polygon", "coordinates": [[[-81.6, 36.12], [-81.65, 36.08], [-81.73, 36.06], [-81.83, 36.07], [-81.94, 36.09], [-82.05, 36.12], [-82.16, 36.16], [-82.26, 36.2], [-82.35, 36.25], [-82.42, 36.31], [-82.46, 36.37], [-82.48, 36.43], [-82.45, 36.47], [-82.38, 36.48], [-82.29, 36.46], [-82.2, 36.43], [-82.1, 36.4], [-82.0, 36.37], [-81.9, 36.34], [-81.8, 36.31], [-81.72, 36.28], [-81.66, 36.24], [-81.62, 36.19], [-81.6, 36.12]]]}}]}